{
  "norad_id": 60276,
  "name": "STARLINK-32154",
  "history": [
    {
      "epoch": "2026-03-28T21:33:02.396160Z",
      "apogee_km": 476.04488464763654,
      "perigee_km": 474.4535283704845,
      "latitude_deg": -1.2674725627130352e-05,
      "longitude_deg": 173.33911624464432,
      "height_km": 476.30577259669883,
      "semi_major_axis_km": 6853.38620650906,
      "eccentricity": 0.0001161,
      "inclination_deg": 53.1612,
      "raan_deg": 322.9109,
      "arg_perigee_deg": 101.4673,
      "mean_anomaly_deg": 258.6458,
      "mean_motion_rev_day": 15.30188567
    },
    {
      "epoch": "2026-03-30T00:11:56.349312Z",
      "apogee_km": 475.983030532916,
      "perigee_km": 474.4787162847024,
      "latitude_deg": 5.532951126841051e-05,
      "longitude_deg": 127.36195495903938,
      "height_km": 476.29863676901374,
      "semi_major_axis_km": 6853.367873408809,
      "eccentricity": 0.00010975,
      "inclination_deg": 53.1611,
      "raan_deg": 317.7529,
      "arg_perigee_deg": 103.0088,
      "mean_anomaly_deg": 257.1036,
      "mean_motion_rev_day": 15.30194707
    },
    {
      "epoch": "2026-03-30T08:02:12.774048Z",
      "apogee_km": 476.0213399011209,
      "perigee_km": 474.47809428016535,
      "latitude_deg": -6.025197658237497e-05,
      "longitude_deg": 7.954541886218897,
      "height_km": 476.28476448238206,
      "semi_major_axis_km": 6853.386717090642,
      "eccentricity": 0.00011259,
      "inclination_deg": 53.1613,
      "raan_deg": 316.2359,
      "arg_perigee_deg": 100.1976,
      "mean_anomaly_deg": 259.9151,
      "mean_motion_rev_day": 15.30188396
    },
    {
      "epoch": "2026-03-30T22:08:41.070048Z",
      "apogee_km": 475.96549755992237,
      "perigee_km": 474.49599844739623,
      "latitude_deg": 3.312583705976396e-05,
      "longitude_deg": 153.027322910446,
      "height_km": 476.26224719358993,
      "semi_major_axis_km": 6853.3677480036595,
      "eccentricity": 0.00010721,
      "inclination_deg": 53.161,
      "raan_deg": 313.5059,
      "arg_perigee_deg": 100.4315,
      "mean_anomaly_deg": 259.6807,
      "mean_motion_rev_day": 15.30194749
    },
    {
      "epoch": "2026-03-31T21:39:31.103712Z",
      "apogee_km": 476.74710306801626,
      "perigee_km": 473.8165811711251,
      "latitude_deg": -4.980565248952672e-05,
      "longitude_deg": 154.80260739481614,
      "height_km": 476.55489417240267,
      "semi_major_axis_km": 6853.41884211957,
      "eccentricity": 0.0002138,
      "inclination_deg": 53.161,
      "raan_deg": 308.9554,
      "arg_perigee_deg": 104.8695,
      "mean_anomaly_deg": 255.2542,
      "mean_motion_rev_day": 15.30177637
    },
    {
      "epoch": "2026-04-01T21:10:17.149152Z",
      "apogee_km": 475.96330369380667,
      "perigee_km": 474.4199340888317,
      "latitude_deg": 1.2276937173838763e-05,
      "longitude_deg": 156.59686288220092,
      "height_km": 476.46281935818877,
      "semi_major_axis_km": 6853.328618891319,
      "eccentricity": 0.0001126,
      "inclination_deg": 53.1621,
      "raan_deg": 304.4071,
      "arg_perigee_deg": 118.8644,
      "mean_anomaly_deg": 241.247,
      "mean_motion_rev_day": 15.30207854
    },
    {
      "epoch": "2026-04-02T20:41:04.765344Z",
      "apogee_km": 475.5828561471817,
      "perigee_km": 474.8701063451317,
      "latitude_deg": -4.132070720178607e-06,
      "longitude_deg": 158.37819669607026,
      "height_km": 476.0942654296817,
      "semi_major_axis_km": 6853.363481246157,
      "eccentricity": 5.2e-05,
      "inclination_deg": 53.1585,
      "raan_deg": 299.8525,
      "arg_perigee_deg": 84.9901,
      "mean_anomaly_deg": 275.1159,
      "mean_motion_rev_day": 15.30196178
    },
    {
      "epoch": "2026-04-02T20:41:04.766208Z",
      "apogee_km": 475.58306174808604,
      "perigee_km": 474.8699007442283,
      "latitude_deg": -6.874308520982448e-06,
      "longitude_deg": 158.37829104300545,
      "height_km": 476.0942474732694,
      "semi_major_axis_km": 6853.363481246157,
      "eccentricity": 5.203e-05,
      "inclination_deg": 53.1585,
      "raan_deg": 299.8526,
      "arg_perigee_deg": 84.9901,
      "mean_anomaly_deg": 275.1159,
      "mean_motion_rev_day": 15.30196178
    },
    {
      "epoch": "2026-04-03T18:37:49.145664Z",
      "apogee_km": 475.80967478959155,
      "perigee_km": 474.68160800681653,
      "latitude_deg": 9.921683163050499e-06,
      "longitude_deg": -175.95568707460686,
      "height_km": 476.37407615029946,
      "semi_major_axis_km": 6853.382641398203,
      "eccentricity": 8.23e-05,
      "inclination_deg": 53.1584,
      "raan_deg": 295.6048,
      "arg_perigee_deg": 114.0485,
      "mean_anomaly_deg": 246.0602,
      "mean_motion_rev_day": 15.30189761
    },
    {
      "epoch": "2026-04-04T19:42:41.221152Z",
      "apogee_km": 475.8378749302228,
      "perigee_km": 474.66731598731894,
      "latitude_deg": 2.0553079503136494e-05,
      "longitude_deg": 161.9442933553303,
      "height_km": 476.07639343469697,
      "semi_major_axis_km": 6853.389595458771,
      "eccentricity": 8.54e-05,
      "inclination_deg": 53.1592,
      "raan_deg": 290.7518,
      "arg_perigee_deg": 82.6621,
      "mean_anomaly_deg": 277.4477,
      "mean_motion_rev_day": 15.30187432
    },
    {
      "epoch": "2026-04-05T12:57:16.286112Z",
      "apogee_km": 475.7713537996078,
      "perigee_km": 474.645486214009,
      "latitude_deg": -3.291280063261802e-05,
      "longitude_deg": -100.7477994866632,
      "height_km": 476.23486149875833,
      "semi_major_axis_km": 6853.345420006808,
      "eccentricity": 8.214e-05,
      "inclination_deg": 53.1591,
      "raan_deg": 287.414,
      "arg_perigee_deg": 103.1252,
      "mean_anomaly_deg": 256.984,
      "mean_motion_rev_day": 15.30202227
    },
    {
      "epoch": "2026-04-05T19:13:29.027424Z",
      "apogee_km": 475.7682756897002,
      "perigee_km": 474.64569794465933,
      "latitude_deg": 3.712751923722215e-05,
      "longitude_deg": 163.72815522301266,
      "height_km": 476.1187871553687,
      "semi_major_axis_km": 6853.343986817179,
      "eccentricity": 8.19e-05,
      "inclination_deg": 53.1592,
      "raan_deg": 286.2005,
      "arg_perigee_deg": 91.3487,
      "mean_anomaly_deg": 268.7608,
      "mean_motion_rev_day": 15.30202707
    },
    {
      "epoch": "2026-04-05T22:21:35.236512Z",
      "apogee_km": 475.77865032614955,
      "perigee_km": 474.6009746466916,
      "latitude_deg": -1.3959508583598197e-05,
      "longitude_deg": 115.96639346570981,
      "height_km": 476.08931822542155,
      "semi_major_axis_km": 6853.32681248642,
      "eccentricity": 8.592e-05,
      "inclination_deg": 53.1594,
      "raan_deg": 285.5934,
      "arg_perigee_deg": 90.0913,
      "mean_anomaly_deg": 270.0186,
      "mean_motion_rev_day": 15.30208459
    },
    {
      "epoch": "2026-04-07T11:58:51.976416Z",
      "apogee_km": 475.90780706517944,
      "perigee_km": 474.54809945845227,
      "latitude_deg": -1.6725175741604425e-05,
      "longitude_deg": -97.18031483550213,
      "height_km": 476.08886450017894,
      "semi_major_axis_km": 6853.364953261816,
      "eccentricity": 9.92e-05,
      "inclination_deg": 53.1598,
      "raan_deg": 278.3115,
      "arg_perigee_deg": 86.8362,
      "mean_anomaly_deg": 273.2752,
      "mean_motion_rev_day": 15.30195685
    },
    {
      "epoch": "2026-04-07T19:49:07.866336Z",
      "apogee_km": 475.91362420398764,
      "perigee_km": 474.54295114645356,
      "latitude_deg": 7.590537534358374e-05,
      "longitude_deg": 143.41556038023097,
      "height_km": 476.08196615972616,
      "semi_major_axis_km": 6853.36528767522,
      "eccentricity": 0.0001,
      "inclination_deg": 53.1603,
      "raan_deg": 276.7954,
      "arg_perigee_deg": 86.2532,
      "mean_anomaly_deg": 273.8584,
      "mean_motion_rev_day": 15.30195573
    },
    {
      "epoch": "2026-04-08T05:13:26.994720Z",
      "apogee_km": 475.94559739546185,
      "perigee_km": 474.51721835189346,
      "latitude_deg": 2.8196712943062144e-06,
      "longitude_deg": 0.12944064817464432,
      "height_km": 476.09210891369815,
      "semi_major_axis_km": 6853.368407873678,
      "eccentricity": 0.00010421,
      "inclination_deg": 53.1606,
      "raan_deg": 274.9753,
      "arg_perigee_deg": 86.9703,
      "mean_anomaly_deg": 273.1417,
      "mean_motion_rev_day": 15.30194528
    },
    {
      "epoch": "2026-04-09T08:00:01.999872Z",
      "apogee_km": 475.9996055448901,
      "perigee_km": 474.6346716186499,
      "latitude_deg": 23.25377724311759,
      "longitude_deg": -29.12601528239625,
      "height_km": 475.74960450711643,
      "semi_major_axis_km": 6853.454138581769,
      "eccentricity": 9.958e-05,
      "inclination_deg": 53.1596,
      "raan_deg": 269.7929,
      "arg_perigee_deg": 88.9735,
      "mean_anomaly_deg": 300.5157,
      "mean_motion_rev_day": 15.30165816
    },
    {
      "epoch": "2026-04-10T04:15:03.250080Z",
      "apogee_km": 475.9268473340153,
      "perigee_km": 474.5760444713287,
      "latitude_deg": -5.1695083247842056e-05,
      "longitude_deg": 3.6965108009858176,
      "height_km": 476.1654799549751,
      "semi_major_axis_km": 6853.388445902672,
      "eccentricity": 9.855e-05,
      "inclination_deg": 53.1617,
      "raan_deg": 265.8748,
      "arg_perigee_deg": 91.3056,
      "mean_anomaly_deg": 268.8057,
      "mean_motion_rev_day": 15.30187817
    },
    {
      "epoch": "2026-04-11T19:26:23.257824Z",
      "apogee_km": 475.92418271353563,
      "perigee_km": 474.5918827191754,
      "latitude_deg": -2.1346078413315963e-05,
      "longitude_deg": 126.6675340195517,
      "height_km": 476.2384393319766,
      "semi_major_axis_km": 6853.395032716356,
      "eccentricity": 9.72e-05,
      "inclination_deg": 53.1595,
      "raan_deg": 258.2886,
      "arg_perigee_deg": 97.0688,
      "mean_anomaly_deg": 263.0423,
      "mean_motion_rev_day": 15.30185611
    }
  ]
}